[{"OBJECT_NAME":"CONNECTA IOT-8","OBJECT_ID":"2025-009CQ","EPOCH":"2026-03-09T17:14:43.751616","MEAN_MOTION":14.92891251,"ECCENTRICITY":0.00022918,"INCLINATION":97.7124,"RA_OF_ASC_NODE":148.5526,"ARG_OF_PERICENTER":4.6494,"MEAN_ANOMALY":355.4746,"EPHEMERIS_TYPE":0,"CLASSIFICATION_TYPE":"U","NORAD_CAT_ID":62695,"ELEMENT_SET_NO":999,"REV_AT_EPOCH":6245,"BSTAR":0.00043246249,"MEAN_MOTION_DOT":4.428e-5,"MEAN_MOTION_DDOT":0},{"OBJECT_NAME":"ANTELSAT","OBJECT_ID":"2014-033AA","EPOCH":"2026-03-09T21:56:19.142880","MEAN_MOTION":14.90152282,"ECCENTRICITY":0.00441676,"INCLINATION":97.764,"RA_OF_ASC_NODE":226.2739,"ARG_OF_PERICENTER":26.8149,"MEAN_ANOMALY":333.5339,"EPHEMERIS_TYPE":0,"CLASSIFICATION_TYPE":"U","NORAD_CAT_ID":40034,"ELEMENT_SET_NO":999,"REV_AT_EPOCH":63102,"BSTAR":0.00055679105,"MEAN_MOTION_DOT":5.434e-5,"MEAN_MOTION_DDOT":0}]
